NORAD_CAT_ID,OBJECT_NAME,OBJECT_TYPE,EPOCH,MEAN_MOTION,ECCENTRICITY,INCLINATION,RA_OF_ASC_NODE,ARG_OF_PERICENTER,MEAN_ANOMALY,BSTAR,MEAN_MOTION_DOT,MEAN_MOTION_DDOT,TLE_LINE0,TLE_LINE1,TLE_LINE2,SEMIMAJOR_AXIS,PERIOD,APOGEE,PERIGEE,DECAYED
53995.0,STARLINK-5097,PAYLOAD,2023-06-01 05:07:31,15.08845795,0.0001092,53.2186,79.2583,93.245,266.8667,0.0001456,2.031e-05,0.0,0 STARLINK-5097,1 53995U 22125AH  23152.21355984  .00002031  00000-0  14560-3 0  9998,2 53995  53.2186  79.2583 0001092  93.2450 266.8667 15.08845795 36605,6917.863,95.437,540.483,538.972,0.0
53995.0,STARLINK-5097,PAYLOAD,2023-06-02 01:47:32,15.08845696,0.0001107,53.2177,75.3946,101.681,258.4306,-1.5261e-05,-5.31e-06,0.0,0 STARLINK-5097,1 53995U 22125AH  23153.07468306 -.00000531  00000-0 -15261-4 0  9991,2 53995  53.2177  75.3946 0001107 101.6810 258.4306 15.08845696 36816,6917.863,95.437,540.494,538.962,0.0
53995.0,STARLINK-5097,PAYLOAD,2023-06-02 04:58:18,15.08848192,0.0001069,53.2182,74.7983,98.1828,261.9286,-4.3734e-06,-3.57e-06,0.0,0 STARLINK-5097,1 53995U 22125AH  23153.20716068 -.00000357  00000-0 -43734-5 0  9990,2 53995  53.2182  74.7983 0001069  98.1828 261.9286 15.08848192 36755,6917.855,95.437,540.46,538.981,0.0
53995.0,STARLINK-5097,PAYLOAD,2023-06-02 19:16:48,15.08832964,9.45e-05,53.217,72.1211,100.6122,259.4976,-3.857e-05,-9.01e-06,0.0,0 STARLINK-5097,1 53995U 22125AH  23153.80333488 -.00000901  00000-0 -38570-4 0  9993,2 53995  53.2170  72.1211 0000945 100.6122 259.4976 15.08832964 36844,6917.902,95.438,540.421,539.113,0.0
53995.0,STARLINK-5097,PAYLOAD,2023-06-03 01:38:20,15.08836556,0.000101,53.2184,70.9332,103.8063,256.3041,-2.0707e-05,-6.17e-06,0.0,0 STARLINK-5097,1 53995U 22125AH  23154.06829186 -.00000617  00000-0 -20707-4 0  9994,2 53995  53.2184  70.9332 0001010 103.8063 256.3041 15.08836556 36965,6917.891,95.438,540.455,539.057,0.0
53995.0,STARLINK-5097,PAYLOAD,2023-06-03 19:07:35,15.08836904,8.85e-05,53.2179,67.6606,102.0917,258.0175,-5.4723e-07,-2.96e-06,0.0,0 STARLINK-5097,1 53995U 22125AH  23154.79693616 -.00000296  00000-0 -54723-6 0  9991,2 53995  53.2179  67.6606 0000885 102.0917 258.0175 15.08836904 36991,6917.89,95.438,540.367,539.143,0.0
53995.0,STARLINK-5097,PAYLOAD,2023-06-04 03:04:30,15.08845964,0.0001279,53.2189,66.1768,126.7163,233.3947,2.6776e-05,1.38e-06,0.0,0 STARLINK-5097,1 53995U 22125AH  23155.12813013  .00000138  00000-0  26776-4 0  9992,2 53995  53.2189  66.1768 0001279 126.7163 233.3947 15.08845964 37124,6917.862,95.437,540.612,538.842,0.0
53995.0,STARLINK-5097,PAYLOAD,2023-06-04 22:09:08,15.08839542,0.0001139,53.2192,62.6088,111.0566,249.0548,0.00014055,1.95e-05,0.0,0 STARLINK-5097,1 53995U 22125AH  23155.92301298  .00001950  00000-0  14055-3 0  9996,2 53995  53.2192  62.6088 0001139 111.0566 249.0548 15.08839542 37163,6917.882,95.438,540.535,538.959,0.0
53995.0,STARLINK-5097,PAYLOAD,2023-06-05 10:52:13,15.08839318,0.0001139,53.2193,60.2276,82.8066,277.3055,0.00010762,1.425e-05,0.0,0 STARLINK-5097,1 53995U 22125AH  23156.45293597  .00001425  00000-0  10762-3 0  9995,2 53995  53.2193  60.2276 0001139  82.8066 277.3055 15.08839318 37244,6917.882,95.438,540.535,538.96,0.0
53995.0,STARLINK-5097,PAYLOAD,2023-06-05 17:13:46,15.08840867,0.0001217,53.219,59.0396,84.9478,275.1653,6.5936e-05,7.62e-06,0.0,0 STARLINK-5097,1 53995U 22125AH  23156.71789660  .00000762  00000-0  65936-4 0  9992,2 53995  53.2190  59.0396 0001217  84.9478 275.1653 15.08840867 37282,6917.878,95.437,540.585,538.901,0.0
53995.0,STARLINK-5097,PAYLOAD,2023-06-06 02:46:04,15.08844431,0.0001075,53.2189,57.2548,86.1585,273.953,7.8389e-05,9.6e-06,0.0,0 STARLINK-5097,1 53995U 22125AH  23157.11533286  .00000960  00000-0  78389-4 0  9994,2 53995  53.2189  57.2548 0001075  86.1585 273.9530 15.08844431 37342,6917.867,95.437,540.476,538.988,0.0
53995.0,STARLINK-5097,PAYLOAD,2023-06-06 23:26:05,15.08847452,0.0001075,53.2193,53.3896,83.4444,276.6671,9.1894e-06,-1.42e-06,0.0,0 STARLINK-5097,1 53995U 22125AH  23157.97645177 -.00000142  00000-0  91894-5 0  9991,2 53995  53.2193  53.3896 0001075  83.4444 276.6671 15.08847452 37559,6917.858,95.437,540.466,538.979,0.0
53995.0,STARLINK-5097,PAYLOAD,2023-06-07 23:16:52,15.08837288,8.45e-05,53.22,48.9272,93.556,266.5529,0.00012126,1.643e-05,0.0,0 STARLINK-5097,1 53995U 22125AH  23158.97005411  .00001643  00000-0  12126-3 0  9998,2 53995  53.2200  48.9272 0000845  93.5560 266.5529 15.08837288 37625,6917.889,95.438,540.338,539.169,0.0
53995.0,STARLINK-5097,PAYLOAD,2023-06-09 02:18:25,15.08843464,0.0001074,53.219,43.8734,97.6359,262.4755,7.9676e-05,9.81e-06,0.0,0 STARLINK-5097,1 53995U 22125AH  23160.09613150  .00000981  00000-0  79676-4 0  9997,2 53995  53.2190  43.8734 0001074  97.6359 262.4755 15.08843464 37872,6917.87,95.437,540.478,538.992,0.0
53995.0,STARLINK-5097,PAYLOAD,2023-06-09 16:36:54,15.08846609,0.0001179,53.2193,41.195,111.2223,248.8895,-0.00010341,-1.934e-05,0.0,0 STARLINK-5097,1 53995U 22125AH  23160.69229752 -.00001934  00000-0 -10341-3 0  9998,2 53995  53.2193  41.1950 0001179 111.2223 248.8895 15.08846609 37962,6917.86,95.437,540.541,538.91,0.0
53995.0,STARLINK-5097,PAYLOAD,2023-06-09 19:47:41,15.08834435,0.0001126,53.219,40.6016,106.4801,253.6315,-1.2847e-05,-4.92e-06,0.0,0 STARLINK-5097,1 53995U 22125AH  23160.82478174 -.00000492  00000-0 -12847-4 0  9999,2 53995  53.2190  40.6016 0001126 106.4801 253.6315 15.08834435 37905,6917.897,95.438,540.541,538.983,0.0
53995.0,STARLINK-5097,PAYLOAD,2023-06-10 11:41:32,15.08837961,0.000104,53.2184,37.6302,97.08,263.031,-3.8216e-06,-3.49e-06,0.0,0 STARLINK-5097,1 53995U 22125AH  23161.48718192 -.00000349  00000-0 -38216-5 0  9999,2 53995  53.2184  37.6302 0001040  97.0800 263.0310 15.08837961 38000,6917.887,95.438,540.471,539.032,0.0
53995.0,STARLINK-5097,PAYLOAD,2023-06-10 16:27:41,15.08837943,0.0001047,53.2184,36.738,96.9967,263.1144,3.3203e-06,-2.35e-06,0.0,0 STARLINK-5097,1 53995U 22125AH  23161.68590182 -.00000235  00000-0  33203-5 0  9992,2 53995  53.2184  36.7380 0001047  96.9967 263.1144 15.08837943 38113,6917.887,95.438,540.476,539.027,0.0
53995.0,STARLINK-5097,PAYLOAD,2023-06-10 18:03:05,15.08837574,0.0001044,53.2185,36.4407,95.8355,264.2756,1.8628e-06,-2.58e-06,0.0,0 STARLINK-5097,1 53995U 22125AH  23161.75214224 -.00000258  00000-0  18628-5 0  9999,2 53995  53.2185  36.4407 0001044  95.8355 264.2756 15.08837574 38040,6917.888,95.438,540.475,539.031,0.0
53995.0,STARLINK-5097,PAYLOAD,2023-06-11 09:56:56,15.08833043,0.0001015,53.2187,33.4677,95.077,265.0338,7.9478e-05,9.77e-06,0.0,0 STARLINK-5097,1 53995U 22125AH  23162.41454311  .00000977  00000-0  79478-4 0  9992,2 53995  53.2187  33.4677 0001015  95.0770 265.0338 15.08833043 38142,6917.902,95.438,540.469,539.064,0.0
53995.0,STARLINK-5097,PAYLOAD,2023-06-11 17:53:52,15.08839724,9.54e-05,53.2186,31.9816,93.3462,266.7639,5.5124e-05,5.9e-06,0.0,0 STARLINK-5097,1 53995U 22125AH  23162.74574113  .00000590  00000-0  55124-4 0  9994,2 53995  53.2186  31.9816 0000954  93.3462 266.7639 15.08839724 38198,6917.881,95.438,540.406,539.086,0.0
53995.0,STARLINK-5097,PAYLOAD,2023-06-12 01:50:47,15.08848655,9.97e-05,53.2185,30.4939,94.1748,265.9358,0.0001178,1.588e-05,0.0,0 STARLINK-5097,1 53995U 22125AH  23163.07693338  .00001588  00000-0  11780-3 0  9999,2 53995  53.2185  30.4939 0000997  94.1748 265.9358 15.08848655 38327,6917.854,95.437,540.409,539.029,0.0
53995.0,STARLINK-5097,PAYLOAD,2023-06-12 08:12:19,15.08845074,9.67e-05,53.2189,29.3051,94.8672,265.243,3.9478e-05,3.41e-06,0.0,0 STARLINK-5097,1 53995U 22125AH  23163.34189764  .00000341  00000-0  39478-4 0  9993,2 53995  53.2189  29.3051 0000967  94.8672 265.2430 15.08845074 38363,6917.865,95.437,540.399,539.061,0.0
53995.0,STARLINK-5097,PAYLOAD,2023-06-12 17:44:39,15.08835649,9.84e-05,53.2188,27.5212,89.1796,270.9309,5.2804e-05,5.53e-06,0.0,0 STARLINK-5097,1 53995U 22125AH  23163.73934419  .00000553  00000-0  52804-4 0  9994,2 53995  53.2188  27.5212 0000984  89.1796 270.9309 15.08835649 38426,6917.894,95.438,540.439,539.078,0.0
53995.0,STARLINK-5097,PAYLOAD,2023-06-13 14:24:40,15.08819899,9.16e-05,53.2191,23.6521,92.9676,267.1421,0.00024206,3.565e-05,0.0,0 STARLINK-5097,1 53995U 22125AH  23164.60046954  .00003565  00000-0  24206-3 0  9999,2 53995  53.2191  23.6521 0000916  92.9676 267.1421 15.08819899 38471,6917.942,95.439,540.441,539.173,0.0
53995.0,STARLINK-5097,PAYLOAD,2023-06-13 20:46:12,15.08836371,9.87e-05,53.2188,22.4652,90.8577,269.2529,5.1834e-05,5.37e-06,0.0,0 STARLINK-5097,1 53995U 22125AH  23164.86542514  .00000537  00000-0  51834-4 0  9994,2 53995  53.2188  22.4652 0000987  90.8577 269.2529 15.08836371 38515,6917.891,95.438,540.439,539.074,0.0
53995.0,STARLINK-5097,PAYLOAD,2023-06-13 23:56:58,15.08844553,0.0001016,53.219,21.8694,89.9999,270.111,4.5953e-05,4.44e-06,0.0,0 STARLINK-5097,1 53995U 22125AH  23164.99789991  .00000444  00000-0  45953-4 0  9992,2 53995  53.2190  21.8694 0001016  89.9999 270.1110 15.08844553 38617,6917.866,95.437,540.434,539.029,0.0
53995.0,STARLINK-5097,PAYLOAD,2023-06-14 09:29:17,15.08843408,0.0001041,53.2182,20.0852,87.2496,272.8616,4.5335e-06,-2.16e-06,0.0,0 STARLINK-5097,1 53995U 22125AH  23165.39534116 -.00000216  00000-0  45335-5 0  9997,2 53995  53.2182  20.0852 0001041  87.2496 272.8616 15.08843408 38591,6917.87,95.437,540.455,539.015,0.0
53995.0,STARLINK-5097,PAYLOAD,2023-06-14 15:50:50,15.08837678,0.0001104,53.2189,18.8964,84.5578,275.554,6.2996e-05,7.15e-06,0.0,0 STARLINK-5097,1 53995U 22125AH  23165.66030434  .00000715  00000-0  62996-4 0  9995,2 53995  53.2189  18.8964 0001104  84.5578 275.5540 15.08837678 38710,6917.887,95.438,540.516,538.989,0.0
53995.0,STARLINK-5097,PAYLOAD,2023-06-14 20:36:59,15.0884367,0.0001028,53.219,18.004,88.108,272.003,0.00011957,1.616e-05,0.0,0 STARLINK-5097,1 53995U 22125AH  23165.85901964  .00001616  00000-0  11957-3 0  9992,2 53995  53.2190  18.0040 0001028  88.1080 272.0030 15.08843670 38661,6917.869,95.437,540.445,539.023,0.0
